{"type": "FeatureCollection", "features": [ {"type": "Feature", "properties": {"norad_id": 34468, "name": "COSMOS 2251 DEB", "group": "cosmos-2251-debris", "lat": -14.513050732844142, "lon": 106.53693296322395, "alt_km": 737.2920450232486, "timestamp": "2025-12-16T03:53:27.449688+00:00", "meta": {"OBJECT_NAME": "COSMOS 2251 DEB", "OBJECT_ID": "1993-036TM", "EPOCH": "2025-12-15T08:03:29.020320", "MEAN_MOTION": 14.47631668, "ECCENTRICITY": 0.0076341, "INCLINATION": 74.0126, "RA_OF_ASC_NODE": 112.3406, "ARG_OF_PERICENTER": 256.7343, "MEAN_ANOMALY": 102.5293, "EPHEMERIS_TYPE": 0, "CLASSIFICATION_TYPE": "U", "NORAD_CAT_ID": 34468, "ELEMENT_SET_NO": 999, "REV_AT_EPOCH": 88499, "BSTAR": 0.00036780945, "MEAN_MOTION_DOT": 1.376e-05, "MEAN_MOTION_DDOT": 0}, "tle": {"line1": "1 34468U 93036TM  25349.33575255  .00001376  00000+0  36781-3 0  9998", "line2": "2 34468  74.0126 112.3406 0076341 256.7343 102.5293 14.47631668884991"}}, "geometry": {"type": "Point", "coordinates": [106.53693296322395, -14.513050732844142]}}, {"type": "Feature", "properties": {"norad_id": 34472, "name": "COSMOS 2251 DEB", "group": "cosmos-2251-debris", "lat": 44.85777456500785, "lon": -103.97750057159999, "alt_km": 986.237978166685, "timestamp": "2025-12-16T03:53:27.449699+00:00", "meta": {"OBJECT_NAME": "COSMOS 2251 DEB", "OBJECT_ID": "1993-036TR", "EPOCH": "2025-12-15T00:55:59.112768", "MEAN_MOTION": 13.70332544, "ECCENTRICITY": 0.03278526, "INCLINATION": 74.0841, "RA_OF_ASC_NODE": 94.3633, "ARG_OF_PERICENTER": 224.858, "MEAN_ANOMALY": 132.5614, "EPHEMERIS_TYPE": 0, "CLASSIFICATION_TYPE": "U", "NORAD_CAT_ID": 34472, "ELEMENT_SET_NO": 999, "REV_AT_EPOCH": 83758, "BSTAR": 0.00066023063, "MEAN_MOTION_DOT": 8.29e-06, "MEAN_MOTION_DDOT": 0}, "tle": {"line1": "1 34472U 93036TR  25349.03887862  .00000829  00000+0  66023-3 0  9994", "line2": "2 34472  74.0841  94.3633 0327852 224.8580 132.5614 13.70332544837585"}}, "geometry": {"type": "Point", "coordinates": [-103.97750057159999, 44.85777456500785]}}, {"type": "Feature", "properties": {"norad_id": 34474, "name": "COSMOS 2251 DEB", "group": "cosmos-2251-debris", "lat": -6.45706134097405, "lon": -41.646763453941276, "alt_km": 763.1239783611136, "timestamp": "2025-12-16T03:53:27.449709+00:00", "meta": {"OBJECT_NAME": "COSMOS 2251 DEB", "OBJECT_ID": "1993-036TT", "EPOCH": "2025-12-15T00:55:42.416832", "MEAN_MOTION": 14.0643011, "ECCENTRICITY": 0.01986997, "INCLINATION": 74.0773, "RA_OF_ASC_NODE": 322.1652, "ARG_OF_PERICENTER": 35.4273, "MEAN_ANOMALY": 33.4983, "EPHEMERIS_TYPE": 0, "CLASSIFICATION_TYPE": "U", "NORAD_CAT_ID": 34474, "ELEMENT_SET_NO": 999, "REV_AT_EPOCH": 85541, "BSTAR": 0.0016259854, "MEAN_MOTION_DOT": 3.19e-05, "MEAN_MOTION_DDOT": 0}, "tle": {"line1": "1 34474U 93036TT  25349.03868538  .00003190  00000+0  16260-2 0  9996", "line2": "2 34474  74.0773 322.1652 0198699  35.4273  33.4983 14.06430110855412"}}, "geometry": {"type": "Point", "coordinates": [-41.646763453941276, -6.45706134097405]}}, {"type": "Feature", "properties": {"norad_id": 34476, "name": "COSMOS 2251 DEB", "group": "cosmos-2251-debris", "lat": 28.76101403212193, "lon": 85.79324698460695, "alt_km": 965.8785156425747, "timestamp": "2025-12-16T03:53:27.449719+00:00", "meta": {"OBJECT_NAME": "COSMOS 2251 DEB", "OBJECT_ID": "1993-036TV", "EPOCH": "2025-12-15T06:54:06.450624", "MEAN_MOTION": 13.82056656, "ECCENTRICITY": 0.03201, "INCLINATION": 74.0073, "RA_OF_ASC_NODE": 78.2102, "ARG_OF_PERICENTER": 297.2627, "MEAN_ANOMALY": 59.6224, "EPHEMERIS_TYPE": 0, "CLASSIFICATION_TYPE": "U", "NORAD_CAT_ID": 34476, "ELEMENT_SET_NO": 999, "REV_AT_EPOCH": 83673, "BSTAR": 0.0025453408, "MEAN_MOTION_DOT": 4.024e-05, "MEAN_MOTION_DDOT": 0}, "tle": {"line1": "1 34476U 93036TV  25349.28757466  .00004024  00000+0  25453-2 0  9993", "line2": "2 34476  74.0073  78.2102 0320100 297.2627  59.6224 13.82056656836735"}}, "geometry": {"type": "Point", "coordinates": [85.79324698460695, 28.76101403212193]}}, {"type": "Feature", "properties": {"norad_id": 34477, "name": "COSMOS 2251 DEB", "group": "cosmos-2251-debris", "lat": 55.198033545742824, "lon": -141.43662873297313, "alt_km": 731.0556241351624, "timestamp": "2025-12-16T03:53:27.449730+00:00", "meta": {"OBJECT_NAME": "COSMOS 2251 DEB", "OBJECT_ID": "1993-036TW", "EPOCH": "2025-12-15T04:22:48.408672", "MEAN_MOTION": 14.56883281, "ECCENTRICITY": 0.00768962, "INCLINATION": 73.9794, "RA_OF_ASC_NODE": 64.8462, "ARG_OF_PERICENTER": 251.5544, "MEAN_ANOMALY": 134.6027, "EPHEMERIS_TYPE": 0, "CLASSIFICATION_TYPE": "U", "NORAD_CAT_ID": 34477, "ELEMENT_SET_NO": 999, "REV_AT_EPOCH": 88661, "BSTAR": 0.00054816439, "MEAN_MOTION_DOT": 2.528e-05, "MEAN_MOTION_DDOT": 0}, "tle": {"line1": "1 34477U 93036TW  25349.18250473  .00002528  00000+0  54816-3 0  9992", "line2": "2 34477  73.9794  64.8462 0076896 251.5544 134.6027 14.56883281886616"}}, "geometry": {"type": "Point", "coordinates": [-141.43662873297313, 55.198033545742824]}}, {"type": "Feature", "properties": {"norad_id": 34478, "name": "COSMOS 2251 DEB", "group": "cosmos-2251-debris", "lat": -73.96243553071332, "lon": -84.73782163499585, "alt_km": 533.345260187366, "timestamp": "2025-12-16T03:53:27.449740+00:00", "meta": {"OBJECT_NAME": "COSMOS 2251 DEB", "OBJECT_ID": "1993-036TX", "EPOCH": "2025-12-14T20:42:58.099680", "MEAN_MOTION": 15.08200538, "ECCENTRICITY": 0.00347126, "INCLINATION": 74.0409, "RA_OF_ASC_NODE": 2.5153, "ARG_OF_PERICENTER": 223.3038, "MEAN_ANOMALY": 198.0648, "EPHEMERIS_TYPE": 0, "CLASSIFICATION_TYPE": "U", "NORAD_CAT_ID": 34478, "ELEMENT_SET_NO": 999, "REV_AT_EPOCH": 89005, "BSTAR": 0.0017592546, "MEAN_MOTION_DOT": 0.00027666, "MEAN_MOTION_DDOT": 0}, "tle": {"line1": "1 34478U 93036TX  25348.86317245  .00027666  00000+0  17593-2 0  9998", "line2": "2 34478  74.0409   2.5153 0034712 223.3038 198.0648 15.08200538890056"}}, "geometry": {"type": "Point", "coordinates": [-84.73782163499585, -73.96243553071332]}}, {"type": "Feature", "properties": {"norad_id": 34481, "name": "COSMOS 2251 DEB", "group": "cosmos-2251-debris", "lat": 15.338323274875918, "lon": 51.70735374791122, "alt_km": 829.4634525484789, "timestamp": "2025-12-16T03:53:27.449750+00:00", "meta": {"OBJECT_NAME": "COSMOS 2251 DEB", "OBJECT_ID": "1993-036UA", "EPOCH": "2025-12-15T04:28:29.210016", "MEAN_MOTION": 14.32560813, "ECCENTRICITY": 0.00706549, "INCLINATION": 73.9808, "RA_OF_ASC_NODE": 48.9743, "ARG_OF_PERICENTER": 222.877, "MEAN_ANOMALY": 163.1033, "EPHEMERIS_TYPE": 0, "CLASSIFICATION_TYPE": "U", "NORAD_CAT_ID": 34481, "ELEMENT_SET_NO": 999, "REV_AT_EPOCH": 87484, "BSTAR": 0.0005428243, "MEAN_MOTION_DOT": 1.488e-05, "MEAN_MOTION_DDOT": 0}, "tle": {"line1": "1 34481U 93036UA  25349.18644919  .00001488  00000+0  54282-3 0  9990", "line2": "2 34481  73.9808  48.9743 0070654 222.8770 163.1033 14.32560813874843"}}, "geometry": {"type": "Point", "coordinates": [51.70735374791122, 15.338323274875918]}}, {"type": "Feature", "properties": {"norad_id": 34482, "name": "COSMOS 2251 DEB", "group": "cosmos-2251-debris", "lat": -72.41188100440928, "lon": 152.4152173796676, "alt_km": 638.8588411922365, "timestamp": "2025-12-16T03:53:27.449761+00:00", "meta": {"OBJECT_NAME": "COSMOS 2251 DEB", "OBJECT_ID": "1993-036UB", "EPOCH": "2025-12-15T02:49:24.655008", "MEAN_MOTION": 14.69240737, "ECCENTRICITY": 0.00448027, "INCLINATION": 74.0373, "RA_OF_ASC_NODE": 218.9876, "ARG_OF_PERICENTER": 278.5413, "MEAN_ANOMALY": 236.6759, "EPHEMERIS_TYPE": 0, "CLASSIFICATION_TYPE": "U", "NORAD_CAT_ID": 34482, "ELEMENT_SET_NO": 999, "REV_AT_EPOCH": 88222, "BSTAR": 0.0010208631, "MEAN_MOTION_DOT": 6.083e-05, "MEAN_MOTION_DDOT": 0}, "tle": {"line1": "1 34482U 93036UB  25349.11764647  .00006083  00000+0  10209-2 0  9991", "line2": "2 34482  74.0373 218.9876 0044802 278.5413 236.6759 14.69240737882229"}}, "geometry": {"type": "Point", "coordinates": [152.4152173796676, -72.41188100440928]}}, {"type": "Feature", "properties": {"norad_id": 34544, "name": "COSMOS 2251 DEB", "group": "cosmos-2251-debris", "lat": -10.05749811100171, "lon": 21.422963568260712, "alt_km": 824.0365659181962, "timestamp": "2025-12-16T03:53:27.449771+00:00", "meta": {"OBJECT_NAME": "COSMOS 2251 DEB", "OBJECT_ID": "1993-036UE", "EPOCH": "2025-12-13T23:53:30.258240", "MEAN_MOTION": 13.5466391, "ECCENTRICITY": 0.03840916, "INCLINATION": 73.914, "RA_OF_ASC_NODE": 201.9961, "ARG_OF_PERICENTER": 230.2101, "MEAN_ANOMALY": 200.3541, "EPHEMERIS_TYPE": 0, "CLASSIFICATION_TYPE": "U", "NORAD_CAT_ID": 34544, "ELEMENT_SET_NO": 999, "REV_AT_EPOCH": 82899, "BSTAR": 0.0003836434, "MEAN_MOTION_DOT": 3.97e-06, "MEAN_MOTION_DDOT": 0}, "tle": {"line1": "1 34544U 93036UE  25347.99548910  .00000397  00000+0  38364-3 0  9992", "line2": "2 34544  73.9140 201.9961 0384091 230.2101 200.3541 13.54663910828997"}}, "geometry": {"type": "Point", "coordinates": [21.422963568260712, -10.05749811100171]}}, {"type": "Feature", "properties": {"norad_id": 34546, "name": "COSMOS 2251 DEB", "group": "cosmos-2251-debris", "lat": 0.6786492391913647, "lon": 62.61085384072747, "alt_km": 754.5675037587007, "timestamp": "2025-12-16T03:53:27.449782+00:00", "meta": {"OBJECT_NAME": "COSMOS 2251 DEB", "OBJECT_ID": "1993-036UG", "EPOCH": "2025-12-15T04:31:23.625696", "MEAN_MOTION": 14.45424349, "ECCENTRICITY": 0.00219684, "INCLINATION": 74.0312, "RA_OF_ASC_NODE": 244.6199, "ARG_OF_PERICENTER": 318.1741, "MEAN_ANOMALY": 196.783, "EPHEMERIS_TYPE": 0, "CLASSIFICATION_TYPE": "U", "NORAD_CAT_ID": 34546, "ELEMENT_SET_NO": 999, "REV_AT_EPOCH": 88061, "BSTAR": 0.00045529102, "MEAN_MOTION_DOT": 1.581e-05, "MEAN_MOTION_DDOT": 0}, "tle": {"line1": "1 34546U 93036UG  25349.18846789  .00001581  00000+0  45529-3 0  9999", "line2": "2 34546  74.0312 244.6199 0021968 318.1741 196.7830 14.45424349880614"}}, "geometry": {"type": "Point", "coordinates": [62.61085384072747, 0.6786492391913647]}}]}